NORAD_CAT_ID,OBJECT_NAME,OBJECT_TYPE,EPOCH,MEAN_MOTION,ECCENTRICITY,INCLINATION,RA_OF_ASC_NODE,ARG_OF_PERICENTER,MEAN_ANOMALY,BSTAR,MEAN_MOTION_DOT,MEAN_MOTION_DDOT,TLE_LINE0,TLE_LINE1,TLE_LINE2,SEMIMAJOR_AXIS,PERIOD,APOGEE,PERIGEE,DECAYED
52108.0,STARLINK-3698,PAYLOAD,2024-06-04 12:12:45,15.08846402,0.0001119,53.2179,86.4735,79.8317,280.2801,0.00016894,2.402e-05,0.0,0 STARLINK-3698,1 52108U 22029W   24156.50886510  .00002402  00000-0  16894-3 0  9991,2 52108  53.2179  86.4735 0001119  79.8317 280.2801 15.08846402123684,6917.861,95.437,540.5,538.952,0.0
52108.0,STARLINK-3698,PAYLOAD,2024-06-04 18:34:19,15.08837912,0.000168,53.2192,85.2849,81.2435,278.8747,0.00012409,1.687e-05,0.0,0 STARLINK-3698,1 52108U 22029W   24156.77383394  .00001687  00000-0  12409-3 0  9994,2 52108  53.2192  85.2849 0001680  81.2435 278.8747 15.08837912123726,6917.887,95.438,540.914,538.59,0.0
52108.0,STARLINK-3698,PAYLOAD,2024-06-05 12:03:33,15.08837734,0.0001157,53.2182,82.0129,85.0315,275.0809,8.6638e-05,1.091e-05,0.0,0 STARLINK-3698,1 52108U 22029W   24157.50247491  .00001091  00000-0  86638-4 0  9998,2 52108  53.2182  82.0129 0001157  85.0315 275.0809 15.08837734123831,6917.887,95.438,540.553,538.952,0.0
52108.0,STARLINK-3698,PAYLOAD,2024-06-06 02:22:02,15.0884204,0.0001383,53.2194,79.3371,96.236,263.8789,-2.2577e-05,-6.47e-06,0.0,0 STARLINK-3698,1 52108U 22029W   24158.09863593 -.00000647  00000-0 -22577-4 0  9990,2 52108  53.2194  79.3371 0001383  96.2360 263.8789 15.08842040123925,6917.874,95.437,540.696,538.782,0.0
52108.0,STARLINK-3698,PAYLOAD,2024-06-06 11:54:20,15.08849774,0.0001303,53.2197,77.5529,84.7925,275.3216,-4.2092e-05,-9.58e-06,0.0,0 STARLINK-3698,1 52108U 22029W   24158.49607101 -.00000958  00000-0 -42092-4 0  9994,2 52108  53.2197  77.5529 0001303  84.7925 275.3216 15.08849774123984,6917.851,95.437,540.617,538.814,0.0
52108.0,STARLINK-3698,PAYLOAD,2024-06-06 18:15:53,15.08838789,0.0001433,53.2192,76.3656,82.7631,277.3524,0.0001093,1.452e-05,0.0,0 STARLINK-3698,1 52108U 22029W   24158.76103660  .00001452  00000-0  10930-3 0  9998,2 52108  53.2192  76.3656 0001433  82.7631 277.3524 15.08838789124027,6917.884,95.438,540.74,538.758,0.0
52108.0,STARLINK-3698,PAYLOAD,2024-06-07 18:06:40,15.08839214,0.0001405,53.2192,71.9046,88.6559,271.4594,0.00014684,2.05e-05,0.0,0 STARLINK-3698,1 52108U 22029W   24159.75463867  .00002050  00000-0  14684-3 0  9991,2 52108  53.2192  71.9046 0001405  88.6559 271.4594 15.08839214124176,6917.883,95.438,540.72,538.776,0.0
52108.0,STARLINK-3698,PAYLOAD,2024-06-07 22:52:50,15.08841508,0.0001405,53.2192,71.0127,88.4924,271.6229,0.0001696,2.412e-05,0.0,0 STARLINK-3698,1 52108U 22029W   24159.95335788  .00002412  00000-0  16960-3 0  9994,2 52108  53.2192  71.0127 0001405  88.4924 271.6229 15.08841508124201,6917.876,95.437,540.713,538.769,0.0
52108.0,STARLINK-3698,PAYLOAD,2024-06-08 11:35:55,15.0884465,0.000144,53.218,68.6347,86.8743,273.2413,8.1603e-05,1.011e-05,0.0,0 STARLINK-3698,1 52108U 22029W   24160.48327631  .00001011  00000-0  81603-4 0  9993,2 52108  53.2180  68.6347 0001440  86.8743 273.2413 15.08844650124286,6917.866,95.437,540.727,538.735,0.0
52108.0,STARLINK-3698,PAYLOAD,2024-06-08 22:43:37,15.08834548,0.0001672,53.2193,66.5529,95.8404,264.2779,0.00021858,3.192e-05,0.0,0 STARLINK-3698,1 52108U 22029W   24160.94696334  .00003192  00000-0  21858-3 0  9990,2 52108  53.2193  66.5529 0001672  95.8404 264.2779 15.08834548124358,6917.897,95.438,540.919,538.605,0.0
52108.0,STARLINK-3698,PAYLOAD,2024-06-09 00:19:00,15.08841271,0.0001439,53.2191,66.2554,96.5791,263.5365,0.00010029,1.309e-05,0.0,0 STARLINK-3698,1 52108U 22029W   24161.01319750  .00001309  00000-0  10029-3 0  9999,2 52108  53.2191  66.2554 0001439  96.5791 263.5365 15.08841271124364,6917.877,95.437,540.737,538.746,0.0
52108.0,STARLINK-3698,PAYLOAD,2024-06-09 22:34:24,15.08840619,0.0001393,53.219,62.0928,93.1882,266.927,5.6486e-05,6.11e-06,0.0,0 STARLINK-3698,1 52108U 22029W   24161.94056037  .00000611  00000-0  56486-4 0  9990,2 52108  53.2190  62.0928 0001393  93.1882 266.9270 15.08840619124508,6917.878,95.438,540.707,538.78,0.0
52108.0,STARLINK-3698,PAYLOAD,2024-06-10 00:09:47,15.08841347,0.0001487,53.2186,61.7964,92.0652,268.051,9.9392e-05,1.294e-05,0.0,0 STARLINK-3698,1 52108U 22029W   24162.00679924  .00001294  00000-0  99392-4 0  9995,2 52108  53.2186  61.7964 0001487  92.0652 268.0510 15.08841347124516,6917.876,95.437,540.77,538.713,0.0
52108.0,STARLINK-3698,PAYLOAD,2024-06-10 20:49:48,15.08836144,0.000134,53.2181,57.9302,94.3349,265.7797,8.0191e-05,9.88e-06,0.0,0 STARLINK-3698,1 52108U 22029W   24162.86792428  .00000988  00000-0  80191-4 0  9990,2 52108  53.2181  57.9302 0001340  94.3349 265.7797 15.08836144124644,6917.892,95.438,540.684,538.83,0.0
52108.0,STARLINK-3698,PAYLOAD,2024-06-10 22:25:11,15.08838087,0.0001399,53.2176,57.6316,96.7694,263.3458,8.3375e-05,1.039e-05,0.0,0 STARLINK-3698,1 52108U 22029W   24162.93416303  .00001039  00000-0  83375-4 0  9998,2 52108  53.2176  57.6316 0001399  96.7694 263.3458 15.08838087124650,6917.886,95.438,540.719,538.783,0.0
52108.0,STARLINK-3698,PAYLOAD,2024-06-11 03:11:20,15.08847861,0.000115,53.2175,56.7378,84.274,275.8383,0.00012916,1.769e-05,0.0,0 STARLINK-3698,1 52108U 22029W   24163.13287599  .00001769  00000-0  12916-3 0  9996,2 52108  53.2175  56.7378 0001150  84.2740 275.8383 15.08847861124684,6917.856,95.437,540.517,538.926,0.0
52108.0,STARLINK-3698,PAYLOAD,2024-06-11 09:32:53,15.08844749,0.0001208,53.2172,55.5482,90.7226,269.3904,7.7764e-05,9.5e-06,0.0,0 STARLINK-3698,1 52108U 22029W   24163.39783802  .00000950  00000-0  77764-4 0  9996,2 52108  53.2172  55.5482 0001208  90.7226 269.3904 15.08844749124723,6917.866,95.437,540.567,538.895,0.0
52108.0,STARLINK-3698,PAYLOAD,2024-06-11 23:51:22,15.08837227,0.0001576,53.2189,52.8783,102.6783,257.4385,6.5096e-05,7.48e-06,0.0,0 STARLINK-3698,1 52108U 22029W   24163.99400674  .00000748  00000-0  65096-4 0  9995,2 52108  53.2189  52.8783 0001576 102.6783 257.4385 15.08837227124818,6917.889,95.438,540.844,538.664,0.0
52108.0,STARLINK-3698,PAYLOAD,2024-06-12 22:06:46,15.08837343,0.0001549,53.2185,48.7141,102.7071,257.4094,-5.3704e-06,-3.73e-06,0.0,0 STARLINK-3698,1 52108U 22029W   24164.92137104 -.00000373  00000-0 -53704-5 0  9994,2 52108  53.2185  48.7141 0001549 102.7071 257.4094 15.08837343124958,6917.889,95.438,540.825,538.682,0.0
52108.0,STARLINK-3698,PAYLOAD,2024-06-13 01:17:32,15.08842325,0.0001594,53.2189,48.1151,82.4918,277.6256,-3.4993e-07,-2.94e-06,0.0,0 STARLINK-3698,1 52108U 22029W   24165.05384821 -.00000294  00000-0 -34993-6 0  9991,2 52108  53.2189  48.1151 0001594  82.4918 277.6256 15.08842325124973,6917.873,95.437,540.841,538.636,0.0
52108.0,STARLINK-3698,PAYLOAD,2024-06-13 21:57:32,15.08844115,0.0001721,53.2197,44.2489,81.1623,278.9564,0.00013227,1.818e-05,0.0,0 STARLINK-3698,1 52108U 22029W   24165.91496479  .00001818  00000-0  13227-3 0  9994,2 52108  53.2197  44.2489 0001721  81.1623 278.9564 15.08844115125105,6917.868,95.437,540.923,538.542,0.0
52108.0,STARLINK-3698,PAYLOAD,2024-06-14 09:05:14,15.08844321,0.0001438,53.2181,42.1699,79.3548,280.7606,9.3681e-05,1.203e-05,0.0,0 STARLINK-3698,1 52108U 22029W   24166.37864436  .00001203  00000-0  93681-4 0  9998,2 52108  53.2181  42.1699 0001438  79.3548 280.7606 15.08844321125172,6917.867,95.437,540.727,538.737,0.0
52108.0,STARLINK-3698,PAYLOAD,2024-06-14 21:48:20,15.0884091,0.0001594,53.2183,39.792,82.1563,277.961,4.8109e-05,4.78e-06,0.0,0 STARLINK-3698,1 52108U 22029W   24166.90856855  .00000478  00000-0  48109-4 0  9991,2 52108  53.2183  39.7920 0001594  82.1563 277.9610 15.08840910125257,6917.878,95.437,540.845,538.64,0.0
52108.0,STARLINK-3698,PAYLOAD,2024-06-15 08:56:01,15.08846204,0.0001707,53.2191,37.7106,75.6841,284.434,5.0957e-05,5.23e-06,0.0,0 STARLINK-3698,1 52108U 22029W   24167.37224441  .00000523  00000-0  50957-4 0  9998,2 52108  53.2191  37.7106 0001707  75.6841 284.4340 15.08846204125325,6917.861,95.437,540.907,538.546,0.0
52108.0,STARLINK-3698,PAYLOAD,2024-06-15 21:39:06,15.088491,0.0001348,53.2176,35.3291,96.669,263.4456,-1.6284e-05,-5.47e-06,0.0,0 STARLINK-3698,1 52108U 22029W   24167.90216177 -.00000547  00000-0 -16284-4 0  9997,2 52108  53.2176  35.3291 0001348  96.6690 263.4456 15.08849100125405,6917.853,95.437,540.65,538.785,0.0
52108.0,STARLINK-3698,PAYLOAD,2024-06-16 08:46:48,15.08847886,0.000133,53.2171,33.2471,98.7408,261.3734,-3.5656e-05,-8.55e-06,0.0,0 STARLINK-3698,1 52108U 22029W   24168.36584077 -.00000855  00000-0 -35656-4 0  9991,2 52108  53.2171  33.2471 0001330  98.7408 261.3734 15.08847886125470,6917.856,95.437,540.641,538.801,0.0
52108.0,STARLINK-3698,PAYLOAD,2024-06-16 21:29:54,15.08841174,0.0001539,53.2189,30.8709,82.3544,277.7623,6.8982e-05,8.1e-06,0.0,0 STARLINK-3698,1 52108U 22029W   24168.89576459  .00000810  00000-0  68982-4 0  9991,2 52108  53.2189  30.8709 0001539  82.3544 277.7623 15.08841174125558,6917.877,95.437,540.806,538.677,0.0
52108.0,STARLINK-3698,PAYLOAD,2024-06-17 21:20:41,15.08837763,0.000137,53.2186,26.4077,93.2222,266.8927,3.6382e-05,2.91e-06,0.0,0 STARLINK-3698,1 52108U 22029W   24169.88936736  .00000291  00000-0  36382-4 0  9991,2 52108  53.2186  26.4077 0001370  93.2222 266.8927 15.08837763125703,6917.887,95.438,540.7,538.804,0.0
52108.0,STARLINK-3698,PAYLOAD,2024-06-18 00:31:27,15.08838692,0.0001385,53.2187,25.8133,91.9233,268.1918,9.5881e-06,-1.35e-06,0.0,0 STARLINK-3698,1 52108U 22029W   24170.02184797 -.00000135  00000-0  95881-5 0  9999,2 52108  53.2187  25.8133 0001385  91.9233 268.1918 15.08838692125722,6917.884,95.438,540.708,538.791,0.0
52108.0,STARLINK-3698,PAYLOAD,2024-06-18 06:52:59,15.08842598,0.0001403,53.2188,24.624,90.9841,269.1312,5.6562e-06,-1.98e-06,0.0,0 STARLINK-3698,1 52108U 22029W   24170.28680541 -.00000198  00000-0  56562-5 0  9997,2 52108  53.2188  24.6240 0001403  90.9841 269.1312 15.08842598125767,6917.872,95.437,540.708,538.767,0.0
